[{"OBJECT_NAME":"STARLINK-31298","OBJECT_ID":"2024-044R","EPOCH":"2026-03-09T19:21:22.042368","MEAN_MOTION":15.27567788,"ECCENTRICITY":7.093e-5,"INCLINATION":43.0002,"RA_OF_ASC_NODE":106.3495,"ARG_OF_PERICENTER":284.3027,"MEAN_ANOMALY":75.7746,"EPHEMERIS_TYPE":0,"CLASSIFICATION_TYPE":"U","NORAD_CAT_ID":59167,"ELEMENT_SET_NO":999,"REV_AT_EPOCH":11358,"BSTAR":-2.2173083e-5,"MEAN_MOTION_DOT":-8.72e-6,"MEAN_MOTION_DDOT":0},{"OBJECT_NAME":"OBJECT G","OBJECT_ID":"2025-155G","EPOCH":"2026-03-09T22:09:56.639808","MEAN_MOTION":15.27590702,"ECCENTRICITY":0.00081871,"INCLINATION":97.4488,"RA_OF_ASC_NODE":37.3259,"ARG_OF_PERICENTER":154.1528,"MEAN_ANOMALY":206.0122,"EPHEMERIS_TYPE":0,"CLASSIFICATION_TYPE":"U","NORAD_CAT_ID":64882,"ELEMENT_SET_NO":999,"REV_AT_EPOCH":6559,"BSTAR":0.0004792617,"MEAN_MOTION_DOT":0.00012876,"MEAN_MOTION_DDOT":0}]
